[
  {
    "OBJECT_NAME": "STARLINK-3920",
    "OBJECT_ID": "22051AR",
    "EPOCH": "2025-11-11T06:05:29.778432",
    "MEAN_MOTION": 15.80237143,
    "ECCENTRICITY": 0.0001339,
    "INCLINATION": 53.2098,
    "RA_OF_ASC_NODE": 251.774,
    "ARG_OF_PERICENTER": 129.4176,
    "MEAN_ANOMALY": 230.6966,
    "EPHEMERIS_TYPE": 0,
    "CLASSIFICATION_TYPE": "U",
    "NORAD_CAT_ID": 52575,
    "ELEMENT_SET_NO": 999,
    "REV_AT_EPOCH": 19425,
    "BSTAR": 5.1052e-06,
    "MEAN_MOTION_DOT": 2.87e-06,
    "MEAN_MOTION_DDOT": 0.0,
    "TLE_LINE1": "1 52575U 22051AR  25315.25381688  .00000287  00000+0  51052-5 0  9995",
    "TLE_LINE2": "2 52575  53.2098 251.7740 0001339 129.4176 230.6966 15.80237143194252",
    "COMMENT": "Grouped by shell and plane from TLE"
  },
  {
    "OBJECT_NAME": "STARLINK-5715",
    "OBJECT_ID": "23020AW",
    "EPOCH": "2025-11-11T08:00:03.000384",
    "MEAN_MOTION": 15.92341224,
    "ECCENTRICITY": 0.0002173,
    "INCLINATION": 42.9983,
    "RA_OF_ASC_NODE": 253.7588,
    "ARG_OF_PERICENTER": 229.7362,
    "MEAN_ANOMALY": 324.6233,
    "EPHEMERIS_TYPE": 0,
    "CLASSIFICATION_TYPE": "U",
    "NORAD_CAT_ID": 55613,
    "ELEMENT_SET_NO": 999,
    "REV_AT_EPOCH": 592,
    "BSTAR": 0.0029346,
    "MEAN_MOTION_DOT": 0.01020714,
    "MEAN_MOTION_DDOT": 0.00045827000000000004,
    "TLE_LINE1": "1 55613U 23020AW  25315.33336806  .01020714  45827-3  29346-2 0  9995",
    "TLE_LINE2": "2 55613  42.9983 253.7588 0002173 229.7362 324.6233 15.92341224  5921",
    "COMMENT": "Grouped by shell and plane from TLE"
  },
  {
    "OBJECT_NAME": "STARLINK-11335 [DTC]",
    "OBJECT_ID": "24195A",
    "EPOCH": "2025-11-11T05:33:34.677504",
    "MEAN_MOTION": 15.69715653,
    "ECCENTRICITY": 0.0001032,
    "INCLINATION": 53.1594,
    "RA_OF_ASC_NODE": 250.5698,
    "ARG_OF_PERICENTER": 81.2191,
    "MEAN_ANOMALY": 278.8944,
    "EPHEMERIS_TYPE": 0,
    "CLASSIFICATION_TYPE": "U",
    "NORAD_CAT_ID": 61687,
    "ELEMENT_SET_NO": 999,
    "REV_AT_EPOCH": 6042,
    "BSTAR": 1.5745000000000003e-05,
    "MEAN_MOTION_DOT": 1.32e-05,
    "MEAN_MOTION_DDOT": 0.0,
    "TLE_LINE1": "1 61687U 24195A   25315.23165136  .00001320  00000+0  15745-4 0  9993",
    "TLE_LINE2": "2 61687  53.1594 250.5698 0001032  81.2191 278.8944 15.69715653 60422",
    "COMMENT": "Grouped by shell and plane from TLE"
  },
  {
    "OBJECT_NAME": "STARLINK-11344 [DTC]",
    "OBJECT_ID": "24195B",
    "EPOCH": "2025-11-11T02:23:08.424384",
    "MEAN_MOTION": 15.69722837,
    "ECCENTRICITY": 0.000138,
    "INCLINATION": 53.1592,
    "RA_OF_ASC_NODE": 251.1643,
    "ARG_OF_PERICENTER": 85.3606,
    "MEAN_ANOMALY": 274.757,
    "EPHEMERIS_TYPE": 0,
    "CLASSIFICATION_TYPE": "U",
    "NORAD_CAT_ID": 61688,
    "ELEMENT_SET_NO": 999,
    "REV_AT_EPOCH": 6040,
    "BSTAR": 2.3042000000000004e-05,
    "MEAN_MOTION_DOT": 2.205e-05,
    "MEAN_MOTION_DDOT": 0.0,
    "TLE_LINE1": "1 61688U 24195B   25315.09940306  .00002205  00000+0  23042-4 0  9990",
    "TLE_LINE2": "2 61688  53.1592 251.1643 0001380  85.3606 274.7570 15.69722837 60400",
    "COMMENT": "Grouped by shell and plane from TLE"
  },
  {
    "OBJECT_NAME": "STARLINK-11312 [DTC]",
    "OBJECT_ID": "24195C",
    "EPOCH": "2025-11-11T05:19:27.423552",
    "MEAN_MOTION": 15.69708218,
    "ECCENTRICITY": 0.0001415,
    "INCLINATION": 53.1594,
    "RA_OF_ASC_NODE": 250.4999,
    "ARG_OF_PERICENTER": 115.4322,
    "MEAN_ANOMALY": 244.6843,
    "EPHEMERIS_TYPE": 0,
    "CLASSIFICATION_TYPE": "U",
    "NORAD_CAT_ID": 61689,
    "ELEMENT_SET_NO": 999,
    "REV_AT_EPOCH": 6042,
    "BSTAR": 1.9111e-05,
    "MEAN_MOTION_DOT": 1.727e-05,
    "MEAN_MOTION_DDOT": 0.0,
    "TLE_LINE1": "1 61689U 24195C   25315.22184518  .00001727  00000+0  19111-4 0  9991",
    "TLE_LINE2": "2 61689  53.1594 250.4999 0001415 115.4322 244.6843 15.69708218 60426",
    "COMMENT": "Grouped by shell and plane from TLE"
  },
  {
    "OBJECT_NAME": "STARLINK-11340 [DTC]",
    "OBJECT_ID": "24195D",
    "EPOCH": "2025-11-11T05:12:23.572800",
    "MEAN_MOTION": 15.69709413,
    "ECCENTRICITY": 0.0001365,
    "INCLINATION": 53.1588,
    "RA_OF_ASC_NODE": 250.4696,
    "ARG_OF_PERICENTER": 100.8625,
    "MEAN_ANOMALY": 259.2546,
    "EPHEMERIS_TYPE": 0,
    "CLASSIFICATION_TYPE": "U",
    "NORAD_CAT_ID": 61690,
    "ELEMENT_SET_NO": 999,
    "REV_AT_EPOCH": 6042,
    "BSTAR": 2.9311e-05,
    "MEAN_MOTION_DOT": 2.963e-05,
    "MEAN_MOTION_DDOT": 0.0,
    "TLE_LINE1": "1 61690U 24195D   25315.21693950  .00002963  00000+0  29311-4 0  9993",
    "TLE_LINE2": "2 61690  53.1588 250.4696 0001365 100.8625 259.2546 15.69709413 60423",
    "COMMENT": "Grouped by shell and plane from TLE"
  },
  {
    "OBJECT_NAME": "STARLINK-11339 [DTC]",
    "OBJECT_ID": "24195E",
    "EPOCH": "2025-11-11T01:54:54.439200",
    "MEAN_MOTION": 15.69711475,
    "ECCENTRICITY": 0.0002074,
    "INCLINATION": 53.1583,
    "RA_OF_ASC_NODE": 251.033,
    "ARG_OF_PERICENTER": 35.0385,
    "MEAN_ANOMALY": 325.0769,
    "EPHEMERIS_TYPE": 0,
    "CLASSIFICATION_TYPE": "U",
    "NORAD_CAT_ID": 61691,
    "ELEMENT_SET_NO": 999,
    "REV_AT_EPOCH": 6040,
    "BSTAR": 1.3669e-05,
    "MEAN_MOTION_DOT": 1.066e-05,
    "MEAN_MOTION_DDOT": 0.0,
    "TLE_LINE1": "1 61691U 24195E   25315.07979675  .00001066  00000+0  13669-4 0  9991",
    "TLE_LINE2": "2 61691  53.1583 251.0330 0002074  35.0385 325.0769 15.69711475 60409",
    "COMMENT": "Grouped by shell and plane from TLE"
  },
  {
    "OBJECT_NAME": "STARLINK-11315 [DTC]",
    "OBJECT_ID": "24195F",
    "EPOCH": "2025-11-11T02:01:57.702432",
    "MEAN_MOTION": 15.69715296,
    "ECCENTRICITY": 0.0001533,
    "INCLINATION": 53.1599,
    "RA_OF_ASC_NODE": 251.0656,
    "ARG_OF_PERICENTER": 79.5512,
    "MEAN_ANOMALY": 280.5679,
    "EPHEMERIS_TYPE": 0,
    "CLASSIFICATION_TYPE": "U",
    "NORAD_CAT_ID": 61692,
    "ELEMENT_SET_NO": 999,
    "REV_AT_EPOCH": 6040,
    "BSTAR": 8.8784e-06,
    "MEAN_MOTION_DOT": 4.87e-06,
    "MEAN_MOTION_DDOT": 0.0,
    "TLE_LINE1": "1 61692U 24195F   25315.08469563  .00000487  00000+0  88784-5 0  9990",
    "TLE_LINE2": "2 61692  53.1599 251.0656 0001533  79.5512 280.5679 15.69715296 60402",
    "COMMENT": "Grouped by shell and plane from TLE"
  },
  {
    "OBJECT_NAME": "STARLINK-11366 [DTC]",
    "OBJECT_ID": "24195G",
    "EPOCH": "2025-11-11T04:51:12.495744",
    "MEAN_MOTION": 15.69699978,
    "ECCENTRICITY": 0.00013,
    "INCLINATION": 53.1584,
    "RA_OF_ASC_NODE": 250.3734,
    "ARG_OF_PERICENTER": 103.6661,
    "MEAN_ANOMALY": 256.4501,
    "EPHEMERIS_TYPE": 0,
    "CLASSIFICATION_TYPE": "U",
    "NORAD_CAT_ID": 61693,
    "ELEMENT_SET_NO": 999,
    "REV_AT_EPOCH": 6042,
    "BSTAR": 2.686e-05,
    "MEAN_MOTION_DOT": 2.665e-05,
    "MEAN_MOTION_DDOT": 0.0,
    "TLE_LINE1": "1 61693U 24195G   25315.20222796  .00002665  00000+0  26860-4 0  9996",
    "TLE_LINE2": "2 61693  53.1584 250.3734 0001300 103.6661 256.4501 15.69699978 60428",
    "COMMENT": "Grouped by shell and plane from TLE"
  },
  {
    "OBJECT_NAME": "STARLINK-11348 [DTC]",
    "OBJECT_ID": "24195H",
    "EPOCH": "2025-11-11T03:12:27.318528",
    "MEAN_MOTION": 15.69711806,
    "ECCENTRICITY": 0.0001071,
    "INCLINATION": 53.1596,
    "RA_OF_ASC_NODE": 250.6552,
    "ARG_OF_PERICENTER": 73.1422,
    "MEAN_ANOMALY": 286.9713,
    "EPHEMERIS_TYPE": 0,
    "CLASSIFICATION_TYPE": "U",
    "NORAD_CAT_ID": 61694,
    "ELEMENT_SET_NO": 999,
    "REV_AT_EPOCH": 6041,
    "BSTAR": 2.8142000000000003e-05,
    "MEAN_MOTION_DOT": 2.822e-05,
    "MEAN_MOTION_DDOT": 0.0,
    "TLE_LINE1": "1 61694U 24195H   25315.13364952  .00002822  00000+0  28142-4 0  9990",
    "TLE_LINE2": "2 61694  53.1596 250.6552 0001071  73.1422 286.9713 15.69711806 60411",
    "COMMENT": "Grouped by shell and plane from TLE"
  },
  {
    "OBJECT_NAME": "STARLINK-11327 [DTC]",
    "OBJECT_ID": "24195J",
    "EPOCH": "2025-11-11T04:37:04.581696",
    "MEAN_MOTION": 15.69709989,
    "ECCENTRICITY": 0.0001201,
    "INCLINATION": 53.1589,
    "RA_OF_ASC_NODE": 250.3056,
    "ARG_OF_PERICENTER": 84.6441,
    "MEAN_ANOMALY": 275.4714,
    "EPHEMERIS_TYPE": 0,
    "CLASSIFICATION_TYPE": "U",
    "NORAD_CAT_ID": 61695,
    "ELEMENT_SET_NO": 999,
    "REV_AT_EPOCH": 6042,
    "BSTAR": 6.0758e-06,
    "MEAN_MOTION_DOT": 1.47e-06,
    "MEAN_MOTION_DDOT": 0.0,
    "TLE_LINE1": "1 61695U 24195J   25315.19241414  .00000147  00000+0  60758-5 0  9992",
    "TLE_LINE2": "2 61695  53.1589 250.3056 0001201  84.6441 275.4714 15.69709989 60427",
    "COMMENT": "Grouped by shell and plane from TLE"
  },
  {
    "OBJECT_NAME": "STARLINK-11568 [DTC]",
    "OBJECT_ID": "25057A",
    "EPOCH": "2025-11-11T05:59:00.920544",
    "MEAN_MOTION": 15.70913443,
    "ECCENTRICITY": 9.97e-05,
    "INCLINATION": 42.9996,
    "RA_OF_ASC_NODE": 258.129,
    "ARG_OF_PERICENTER": 280.918,
    "MEAN_ANOMALY": 79.1575,
    "EPHEMERIS_TYPE": 0,
    "CLASSIFICATION_TYPE": "U",
    "NORAD_CAT_ID": 63307,
    "ELEMENT_SET_NO": 999,
    "REV_AT_EPOCH": 3855,
    "BSTAR": 0.0016769999999999999,
    "MEAN_MOTION_DOT": 0.00221244,
    "MEAN_MOTION_DDOT": 0.0,
    "TLE_LINE1": "1 63307U 25057A   25315.24931621  .00221244  00000+0  16770-2 0  9999",
    "TLE_LINE2": "2 63307  42.9996 258.1290 0000997 280.9180  79.1575 15.70913443 38552",
    "COMMENT": "Grouped by shell and plane from TLE"
  }
]